NORAD_CAT_ID,OBJECT_NAME,OBJECT_TYPE,EPOCH,MEAN_MOTION,ECCENTRICITY,INCLINATION,RA_OF_ASC_NODE,ARG_OF_PERICENTER,MEAN_ANOMALY,BSTAR,MEAN_MOTION_DOT,MEAN_MOTION_DDOT,TLE_LINE0,TLE_LINE1,TLE_LINE2,SEMIMAJOR_AXIS,PERIOD,APOGEE,PERIGEE,DECAYED
52383.0,STARLINK-3811,PAYLOAD,2023-07-24 23:52:07,15.08840391,0.0001037,53.2163,162.8986,98.4343,261.6766,3.2595e-05,2.31e-06,0.0,0 STARLINK-3811,1 52383U 22045BE  23205.99453595  .00000231  00000-0  32595-4 0  9999,2 52383  53.2163 162.8986 0001037  98.4343 261.6766 15.08840391 71332,6917.879,95.438,540.462,539.027,0.0
52383.0,STARLINK-3811,PAYLOAD,2023-07-26 02:53:41,15.08842392,0.0001018,53.216,157.8446,56.7182,303.3907,0.00016067,2.27e-05,0.0,0 STARLINK-3811,1 52383U 22045BE  23207.12061525  .00002270  00000-0  16067-3 0  9994,2 52383  53.2160 157.8446 0001018  56.7182 303.3907 15.08842392 71504,6917.873,95.437,540.442,539.034,0.0
52383.0,STARLINK-3811,PAYLOAD,2023-07-26 04:29:04,15.08834577,0.0001107,53.2152,157.5454,102.2995,257.8121,8.9813e-05,1.142e-05,0.0,0 STARLINK-3811,1 52383U 22045BE  23207.18686097  .00001142  00000-0  89813-4 0  9994,2 52383  53.2152 157.5454 0001107 102.2995 257.8121 15.08834577 71517,6917.897,95.438,540.528,538.996,0.0
52383.0,STARLINK-3811,PAYLOAD,2023-07-27 02:44:27,15.08857593,0.0001149,53.2149,153.3835,78.068,282.0441,0.0003191,4.797e-05,0.0,0 STARLINK-3811,1 52383U 22045BE  23208.11420876  .00004797  00000-0  31910-3 0  9992,2 52383  53.2149 153.3835 0001149  78.0680 282.0441 15.08857593 71650,6917.827,95.436,540.486,538.897,0.0
52383.0,STARLINK-3811,PAYLOAD,2023-07-27 13:52:09,15.0884351,9.8e-05,53.2144,151.3015,98.6661,261.4442,2.4442e-05,1.01e-06,0.0,0 STARLINK-3811,1 52383U 22045BE  23208.57789148  .00000101  00000-0  24442-4 0  9990,2 52383  53.2144 151.3015 0000980  98.6661 261.4442 15.08843510 71726,6917.87,95.437,540.413,539.057,0.0
52383.0,STARLINK-3811,PAYLOAD,2023-07-28 00:59:52,15.08833431,0.0001431,53.2157,149.2222,92.2339,267.8817,-9.1219e-05,-1.739e-05,0.0,0 STARLINK-3811,1 52383U 22045BE  23209.04157924 -.00001739  00000-0 -91219-4 0  9990,2 52383  53.2157 149.2222 0001431  92.2339 267.8817 15.08833431 71794,6917.9,95.438,540.755,538.776,0.0
52383.0,STARLINK-3811,PAYLOAD,2023-07-28 02:35:15,15.08834295,0.0001304,53.2163,148.9237,106.3121,253.8015,-8.4722e-05,-1.636e-05,0.0,0 STARLINK-3811,1 52383U 22045BE  23209.10781781 -.00001636  00000-0 -84722-4 0  9998,2 52383  53.2163 148.9237 0001304 106.3121 253.8015 15.08834295 71804,6917.898,95.438,540.665,538.861,0.0
52383.0,STARLINK-3811,PAYLOAD,2023-07-29 02:26:02,15.08846592,0.0001428,53.2165,144.4653,99.339,260.7764,3.8914e-05,3.32e-06,0.0,0 STARLINK-3811,1 52383U 22045BE  23210.10141502  .00000332  00000-0  38914-4 0  9993,2 52383  53.2165 144.4653 0001428  99.3390 260.7764 15.08846592 71952,6917.86,95.437,540.713,538.737,0.0
52383.0,STARLINK-3811,PAYLOAD,2023-07-30 02:16:49,15.0884415,0.0001255,53.2156,140.0013,102.6067,257.5066,0.00018682,2.687e-05,0.0,0 STARLINK-3811,1 52383U 22045BE  23211.09501694  .00002687  00000-0  18682-3 0  9998,2 52383  53.2156 140.0013 0001255 102.6067 257.5066 15.08844150 72106,6917.868,95.437,540.601,538.865,0.0
52383.0,STARLINK-3811,PAYLOAD,2023-07-31 02:07:36,15.08841142,0.0001448,53.2174,135.5466,107.1998,252.9152,-6.1841e-06,-3.86e-06,0.0,0 STARLINK-3811,1 52383U 22045BE  23212.08861867 -.00000386  00000-0 -61841-5 0  9992,2 52383  53.2174 135.5466 0001448 107.1998 252.9152 15.08841142 72253,6917.877,95.437,540.744,538.74,0.0
52383.0,STARLINK-3811,PAYLOAD,2023-08-01 01:58:24,15.08839588,0.0001347,53.2177,131.0821,97.6535,262.461,7.076e-05,8.38e-06,0.0,0 STARLINK-3811,1 52383U 22045BE  23213.08222407  .00000838  00000-0  70760-4 0  9993,2 52383  53.2177 131.0821 0001347  97.6535 262.4610 15.08839588 72403,6917.882,95.438,540.678,538.815,0.0
52383.0,STARLINK-3811,PAYLOAD,2023-08-02 03:24:34,15.08840256,0.0001328,53.2178,126.3244,88.4039,271.7105,0.00011717,1.577e-05,0.0,0 STARLINK-3811,1 52383U 22045BE  23214.14206612  .00001577  00000-0  11717-3 0  9998,2 52383  53.2178 126.3244 0001328  88.4039 271.7105 15.08840256 72569,6917.88,95.438,540.663,538.826,0.0
52383.0,STARLINK-3811,PAYLOAD,2023-08-03 03:15:21,15.08850921,0.0001275,53.2167,121.8627,88.4814,271.6324,0.00022662,3.322e-05,0.0,0 STARLINK-3811,1 52383U 22045BE  23215.13566182  .00003322  00000-0  22662-3 0  9990,2 52383  53.2167 121.8627 0001275  88.4814 271.6324 15.08850921 72713,6917.847,95.437,540.594,538.83,0.0
52383.0,STARLINK-3811,PAYLOAD,2023-08-03 23:55:22,15.08836166,0.000124,53.2159,117.9979,101.8603,258.2528,6.8876e-06,-1.78e-06,0.0,0 STARLINK-3811,1 52383U 22045BE  23215.99679142 -.00000178  00000-0  68876-5 0  9991,2 52383  53.2159 117.9979 0001240 101.8603 258.2528 15.08836166 72844,6917.892,95.438,540.615,538.899,0.0
52383.0,STARLINK-3811,PAYLOAD,2023-08-04 23:46:09,15.08852003,0.0001087,53.2157,113.539,93.6103,266.5013,0.00019509,2.819e-05,0.0,0 STARLINK-3811,1 52383U 22045BE  23216.99038600  .00002819  00000-0  19509-3 0  9990,2 52383  53.2157 113.5390 0001087  93.6103 266.5013 15.08852003 72998,6917.844,95.437,540.461,538.957,0.0
52383.0,STARLINK-3811,PAYLOAD,2023-08-06 17:06:11,15.08835446,0.0001009,53.2158,105.806,113.5159,246.5939,-0.00015703,-2.786e-05,0.0,0 STARLINK-3811,1 52383U 22045BE  23218.71262822 -.00002786  00000-0 -15703-3 0  9994,2 52383  53.2158 105.8060 0001009 113.5159 246.5939 15.08835446 73251,6917.894,95.438,540.457,539.061,0.0
52383.0,STARLINK-3811,PAYLOAD,2023-08-06 23:27:44,15.08823614,0.0001074,53.2157,104.6173,109.3966,250.7142,-0.00033378,-5.593e-05,0.0,0 STARLINK-3811,1 52383U 22045BE  23218.97759376 -.00005593  00000-0 -33378-3 0  9994,2 52383  53.2157 104.6173 0001074 109.3966 250.7142 15.08823614 73294,6917.93,95.439,540.538,539.052,0.0
52383.0,STARLINK-3811,PAYLOAD,2023-08-07 18:32:22,15.08828478,0.0001193,53.217,101.0496,118.2815,241.8297,-9.5858e-06,-4.4e-06,0.0,0 STARLINK-3811,1 52383U 22045BE  23219.77248031 -.00000440  00000-0 -95858-5 0  9993,2 52383  53.2170 101.0496 0001193 118.2815 241.8297 15.08828478 73411,6917.916,95.438,540.606,538.955,0.0
52383.0,STARLINK-3811,PAYLOAD,2023-08-08 00:53:54,15.08846918,0.0001076,53.2162,99.8593,115.8275,244.2829,0.00062086,9.609e-05,0.0,0 STARLINK-3811,1 52383U 22045BE  23220.03743581  .00009609  00000-0  62086-3 0  9993,2 52383  53.2162  99.8593 0001076 115.8275 244.2829 15.08846918 73458,6917.859,95.437,540.469,538.98,0.0
52383.0,STARLINK-3811,PAYLOAD,2023-08-09 08:41:36,15.08876827,0.0003177,53.2159,93.9117,70.3299,289.8036,0.00075531,0.00011766,0.0,0 STARLINK-3811,1 52383U 22045BE  23221.36222562  .00011766  00000-0  75531-3 0  9997,2 52383  53.2159  93.9117 0003177  70.3299 289.8036 15.08876827 73655,6917.768,95.435,541.831,537.435,0.0
52383.0,STARLINK-3811,PAYLOAD,2023-08-10 00:35:27,15.08823918,0.0001345,53.2169,90.936,59.1716,300.9409,0.00024059,3.542e-05,0.0,0 STARLINK-3811,1 52383U 22045BE  23222.02462341  .00003542  00000-0  24059-3 0  9994,2 52383  53.2169  90.9360 0001345  59.1716 300.9409 15.08823918 73750,6917.93,95.439,540.725,538.864,0.0
52383.0,STARLINK-3811,PAYLOAD,2023-08-11 08:23:11,15.08831415,0.0001241,53.2154,84.9929,59.1466,300.9648,0.00023236,3.411e-05,0.0,0 STARLINK-3811,1 52383U 22045BE  23223.34943396  .00003411  00000-0  23236-3 0  9995,2 52383  53.2154  84.9929 0001241  59.1466 300.9648 15.08831415 73953,6917.907,95.438,540.63,538.913,0.0
52383.0,STARLINK-3811,PAYLOAD,2023-08-11 14:44:44,15.08805944,0.0001398,53.2154,83.803,69.2913,290.8229,-0.00045082,-7.449e-05,0.0,0 STARLINK-3811,1 52383U 22045BE  23223.61440451 -.00007449  00000-0 -45082-3 0  9999,2 52383  53.2154  83.8030 0001398  69.2913 290.8229 15.08805944 73990,6917.984,95.44,540.817,538.882,0.0
52383.0,STARLINK-3811,PAYLOAD,2023-08-12 09:49:23,15.08829074,0.0001337,53.2162,80.2328,86.8435,273.271,0.00065694,0.0001018,0.0,0 STARLINK-3811,1 52383U 22045BE  23224.40929438  .00010180  00000-0  65694-3 0  9999,2 52383  53.2162  80.2328 0001337  86.8435 273.2710 15.08829074 74112,6917.914,95.438,540.704,538.854,0.0
52383.0,STARLINK-3811,PAYLOAD,2023-08-12 20:57:04,15.08867823,0.0001356,53.2162,78.153,69.1156,290.9981,0.0018942,0.0003001,0.0,0 STARLINK-3811,1 52383U 22045BE  23224.87297273  .00030010  00000-0  18942-2 0  9992,2 52383  53.2162  78.1530 0001356  69.1156 290.9981 15.08867823 74185,6917.795,95.436,540.598,538.722,0.0
52383.0,STARLINK-3811,PAYLOAD,2023-08-13 19:12:27,15.0887619,0.0001269,53.2163,73.9888,92.6972,267.4166,0.0015756,0.00024902,0.0,0 STARLINK-3811,1 52383U 22045BE  23225.80032016  .00024902  00000-0  15756-2 0  9991,2 52383  53.2163  73.9888 0001269  92.6972 267.4166 15.08876190 74322,6917.77,95.435,540.513,538.757,0.0
52383.0,STARLINK-3811,PAYLOAD,2023-08-14 06:20:09,15.08847809,0.0002183,53.2164,71.908,84.7329,275.3912,0.0012797,0.00020142,0.0,0 STARLINK-3811,1 52383U 22045BE  23226.26400109  .00020142  00000-0  12797-2 0  9998,2 52383  53.2164  71.9080 0002183  84.7329 275.3912 15.08847809 74398,6917.857,95.437,541.232,538.211,0.0
52383.0,STARLINK-3811,PAYLOAD,2023-08-14 17:27:51,15.08848945,0.0001414,53.2158,69.8261,94.0634,266.052,0.00036872,5.587e-05,0.0,0 STARLINK-3811,1 52383U 22045BE  23226.72767620  .00005587  00000-0  36872-3 0  9990,2 52383  53.2158  69.8261 0001414  94.0634 266.0520 15.08848945 74469,6917.853,95.437,540.696,538.74,0.0
52383.0,STARLINK-3811,PAYLOAD,2023-08-15 09:21:42,15.0884338,0.0001328,53.2155,66.8531,90.3246,269.7899,0.00022555,3.304e-05,0.0,0 STARLINK-3811,1 52383U 22045BE  23227.39007601  .00003304  00000-0  22555-3 0  9998,2 52383  53.2155  66.8531 0001328  90.3246 269.7899 15.08843380 74563,6917.87,95.437,540.654,538.816,0.0
52383.0,STARLINK-3811,PAYLOAD,2023-08-15 15:43:15,15.08827901,0.0001423,53.2155,65.6633,89.0133,271.1023,0.00053661,8.26e-05,0.0,0 STARLINK-3811,1 52383U 22045BE  23227.65504466  .00008260  00000-0  53661-3 0  9996,2 52383  53.2155  65.6633 0001423  89.0133 271.1023 15.08827901 74601,6917.917,95.438,540.767,538.798,0.0
